INTELSAT 21 (IS-21)     
1 38749U 12045A   26158.76186372 -.00000270  00000+0  00000+0 0  9993
2 38749   0.0447  87.2174 0002014 357.1505  28.0822  1.00272348 50431
INTELSAT 23 (IS-23)     
1 38867U 12057A   26158.76290373 -.00000270  00000+0  00000+0 0  9994
2 38867   0.0140 333.0333 0000552 118.3225  26.4523  1.00275593 49862
FM-6                    
1 39360U 13058A   26158.46512902  .00000000  00000+0  00000+0 0  9997
2 39360   0.0094  45.4890 0001559  95.5877 165.8953  1.00260608 45972
INTELSAT 30 (IS-30)     
1 40271U 14062A   26158.54063252 -.00000136  00000+0  00000+0 0  9995
2 40271   0.0218  41.9024 0001065   4.4015 309.1838  1.00271823  6690
DIRECTV 14              
1 40333U 14078B   26158.61115832 -.00000111  00000+0  00000+0 0  9994
2 40333   0.0091 355.2151 0000490 185.8588 195.7159  1.00270219 41940
DIRECTV 15              
1 40663U 15026A   26158.46988699 -.00000088  00000+0  00000+0 0  9999
2 40663   0.0180   0.9006 0000430 228.5203  92.7414  1.00271546 40360
SKY MEXICO-1            
1 40664U 15026B   26158.54375256 -.00000220  00000+0  00000+0 0  9996
2 40664   0.0169  51.5808 0002251  42.6595 278.6633  1.00271749 40354
INTELSAT 34 (IS-34)     
1 40874U 15039A   26158.76238372 -.00000270  00000+0  00000+0 0  9999
2 40874   0.0104 319.7013 0000525  42.0234 113.4137  1.00271453 39545
INTELSAT 31 (IS-31)     
1 41581U 16035A   26158.39810845 -.00000137  00000+0  00000+0 0  9994
2 41581   0.0186 259.0986 0000826 334.9690  70.0155  1.00271889 36581
INTELSAT 36 (IS-36)     
1 41747U 16053A   26158.50171211 -.00000010  00000+0  00000+0 0  9998
2 41747   0.0098 351.0872 0001812 347.2262 166.7081  1.00271488 35868
INTELSAT 32E (IS-32E)   
1 41945U 17007B   26158.76481038 -.00000254  00000+0  00000+0 0  9997
2 41945   0.0010 354.1974 0000678 347.1216 147.0062  1.00270608 34139
INTELSAT 35E (IS-35E)   
1 42818U 17041A   26158.69524117 -.00000223  00000+0  00000+0 0  9999
2 42818   0.0202  62.5317 0001842  13.9992  35.3772  1.00272821 32725
INTELSAT 37E (IS-37E)   
1 42950U 17059A   26158.84110336  .00000000  00000+0  00000+0 0  9998
2 42950   0.0179 344.9665 0002418 116.1683  79.9053  1.00268311 31972
AZERSPACE 2 (IS-38)     
1 43632U 18074A   26158.78229284  .00000151  00000+0  00000+0 0  9997
2 43632   0.0193 317.7889 0001468 115.6613 149.4697  1.00271088 28353
HORIZONS-3E             
1 43633U 18074B   26158.66422663 -.00000016  00000+0  00000+0 0  9992
2 43633   0.0025 269.3611 0000872   3.8203  31.0023  1.00271165 28247
AT&T T-16               
1 44333U 19034A   26158.39689512 -.00000101  00000+0  00000+0 0  9990
2 44333   0.0211  62.8087 0000497 205.3448  29.6836  1.00271029 25531
INTELSAT 39 (IS-39)     
1 44476U 19049B   26158.86031610  .00000048  00000+0  00000+0 0  9995
2 44476   0.0184 313.9434 0000793   4.1239 309.8638  1.00270950 25036
GALAXY 30 (G-30)        
1 46114U 20056C   26158.74863946  .00000051  00000+0  00000+0 0  9992
2 46114   0.0181 357.7373 0002255  76.6816 326.2340  1.00272738 21194
GALAXY 33 (G-33)        
1 54026U 22128A   26158.74699278  .00000094  00000+0  00000+0 0  9997
2 54026   0.0260  57.3204 0001879  19.7794 314.9812  1.00272418 13647
GALAXY 34 (G-34)        
1 54027U 22128B   26158.67653338  .00000073  00000+0  00000+0 0  9994
2 54027   0.0089 327.1058 0001938 125.3238 278.2116  1.00276145 13814
GALAXY 31 (G-31)        
1 54243U 22153A   26158.67800670  .00000028  00000+0  00000+0 0  9995
2 54243   0.0317 103.7573 0001355 334.3280 301.0814  1.00272348  7038
GALAXY 32 (G-32)        
1 54244U 22153B   26158.47015571 -.00000160  00000+0  00000+0 0  9990
2 54244   0.0092 330.8066 0002200  66.7511 296.5788  1.00270572 13045
GALAXY 35 (G-35)        
1 54741U 22170A   26158.54106588 -.00000148  00000+0  00000+0 0  9994
2 54741   0.0207  77.1642 0002144   2.8403 277.6312  1.00271725 12799
GALAXY 36 (G-36)        
1 54742U 22170B   26158.61315168 -.00000171  00000+0  00000+0 0  9995
2 54742   0.0044 278.1981 0002759 164.0915 305.4688  1.00271440 12676
GALAXY 37 (G-37)        
1 57493U 23112A   26158.67688005  .00000063  00000+0  00000+0 0  9996
2 57493   0.0150 330.7585 0002017 106.9381 295.0638  1.00271575 10445
